STARLINK-3714           
1 52094U 22029G   25272.64735072  .00000969  00000+0  78983-4 0  9999
2 52094  53.2166  92.0702 0001422  75.3792 284.7358 15.08842060196341
STARLINK-3701           
1 52095U 22029H   25273.23248287  .00010505  00000+0  67663-3 0  9992
2 52095  53.2163  89.4446 0001247  87.3888 272.7247 15.08866709196438
STARLINK-3717           
1 52096U 22029J   25272.74763419  .00000435  00000+0  45432-4 0  9999
2 52096  53.2163  81.6169 0001263  83.8593 276.2543 15.08840513196485
STARLINK-3665           
1 52098U 22029L   25272.70623399  .00000543  00000+0  52231-4 0  9994
2 52098  53.2164  91.8030 0001384  71.9477 288.1666 15.08840589196358
STARLINK-3702           
1 52100U 22029N   25273.22878930  .00001363  00000+0  10369-3 0  9995
2 52100  53.2164  89.4552 0001281  97.2132 262.9006 15.08846314196438
STARLINK-3703           
1 52101U 22029P   25272.90865988  .00000460  00000+0  46953-4 0  9995
2 52101  53.2157  91.0858 0001192  80.1540 279.9587 15.08850044196374
STARLINK-3709           
1 52102U 22029Q   25272.89947266  .00000283  00000+0  35888-4 0  9992
2 52102  53.2170  80.9343 0001276  92.5284 267.5854 15.08836294196518
STARLINK-3705           
1 52103U 22029R   25272.74026673  .00000664  00000+0  59783-4 0  9990
2 52103  53.2173  81.6491 0001382  99.3927 260.7221 15.08848434196489
STARLINK-3706           
1 52105U 22029T   25272.86634163  .00001779  00000+0  12980-3 0  9999
2 52105  53.2169  81.0842 0001269  92.8683 267.2455 15.08851102196501
STARLINK-3670           
1 52106U 22029U   25272.82031607  .00000370  00000+0  41349-4 0  9998
2 52106  53.2164  91.2896 0001419  94.1919 265.9235 15.08840710196361
STARLINK-3658           
1 52107U 22029V   25272.79547334  .00000864  00000+0  72339-4 0  9995
2 52107  53.2172  81.4050 0001308  79.7273 280.3867 15.08838751196491
STARLINK-3698           
1 52108U 22029W   25272.73659239  .00001301  00000+0  99820-4 0  9999
2 52108  53.2176  81.6681 0001401  84.0520 276.0632 15.08844815196485
STARLINK-3687           
1 52110U 22029Y   25272.86539137  .00001616  00000+0  11957-3 0  9993
2 52110  53.2169  81.0888 0001615  94.9284 265.1893 15.08845455196509
STARLINK-3708           
1 52111U 22029Z   25272.85064614  .00004852  00000+0  32238-3 0  9996
2 52111  53.2169  81.1537 0001112 139.0936 221.0140 15.08881824196505
STARLINK-3734           
1 52112U 22029AA  25272.79179315  .00001351  00000+0  10293-3 0  9993
2 52112  53.2167  81.4202 0001221  91.9315 268.1817 15.08843234196498
STARLINK-3736           
1 52113U 22029AB  25273.17451545  .00000832  00000+0  70344-4 0  9992
2 52113  53.2166  79.7008 0001201  90.1363 269.9767 15.08838526196552
