[{"OBJECT_NAME":"STARLINK-3714","OBJECT_ID":"2022-029G","EPOCH":"2025-09-29T15:32:11.102208","MEAN_MOTION":15.0884206,"ECCENTRICITY":0.00014222,"INCLINATION":53.2166,"RA_OF_ASC_NODE":92.0702,"ARG_OF_PERICENTER":75.3792,"MEAN_ANOMALY":284.7358,"EPHEMERIS_TYPE":0,"CLASSIFICATION_TYPE":"U","NORAD_CAT_ID":52094,"ELEMENT_SET_NO":999,"REV_AT_EPOCH":19634,"BSTAR":7.8983215e-5,"MEAN_MOTION_DOT":9.69e-6,"MEAN_MOTION_DDOT":0},{"OBJECT_NAME":"STARLINK-3701","OBJECT_ID":"2022-029H","EPOCH":"2025-09-30T05:34:46.519968","MEAN_MOTION":15.08866709,"ECCENTRICITY":0.00012474,"INCLINATION":53.2163,"RA_OF_ASC_NODE":89.4446,"ARG_OF_PERICENTER":87.3888,"MEAN_ANOMALY":272.7247,"EPHEMERIS_TYPE":0,"CLASSIFICATION_TYPE":"U","NORAD_CAT_ID":52095,"ELEMENT_SET_NO":999,"REV_AT_EPOCH":19643,"BSTAR":0.00067663004,"MEAN_MOTION_DOT":0.00010505,"MEAN_MOTION_DDOT":0},{"OBJECT_NAME":"STARLINK-3717","OBJECT_ID":"2022-029J","EPOCH":"2025-09-29T17:56:35.594016","MEAN_MOTION":15.08840513,"ECCENTRICITY":0.00012639,"INCLINATION":53.2163,"RA_OF_ASC_NODE":81.6169,"ARG_OF_PERICENTER":83.8593,"MEAN_ANOMALY":276.2543,"EPHEMERIS_TYPE":0,"CLASSIFICATION_TYPE":"U","NORAD_CAT_ID":52096,"ELEMENT_SET_NO":999,"REV_AT_EPOCH":19648,"BSTAR":4.5432052e-5,"MEAN_MOTION_DOT":4.35e-6,"MEAN_MOTION_DDOT":0},{"OBJECT_NAME":"STARLINK-3665","OBJECT_ID":"2022-029L","EPOCH":"2025-09-29T16:56:58.616736","MEAN_MOTION":15.08840589,"ECCENTRICITY":0.0001384,"INCLINATION":53.2164,"RA_OF_ASC_NODE":91.803,"ARG_OF_PERICENTER":71.9477,"MEAN_ANOMALY":288.1666,"EPHEMERIS_TYPE":0,"CLASSIFICATION_TYPE":"U","NORAD_CAT_ID":52098,"ELEMENT_SET_NO":999,"REV_AT_EPOCH":19635,"BSTAR":5.2230928e-5,"MEAN_MOTION_DOT":5.43e-6,"MEAN_MOTION_DDOT":0},{"OBJECT_NAME":"STARLINK-3702","OBJECT_ID":"2022-029N","EPOCH":"2025-09-30T05:29:27.395520","MEAN_MOTION":15.08846314,"ECCENTRICITY":0.00012814,"INCLINATION":53.2164,"RA_OF_ASC_NODE":89.4552,"ARG_OF_PERICENTER":97.2132,"MEAN_ANOMALY":262.9006,"EPHEMERIS_TYPE":0,"CLASSIFICATION_TYPE":"U","NORAD_CAT_ID":52100,"ELEMENT_SET_NO":999,"REV_AT_EPOCH":19643,"BSTAR":0.00010369035,"MEAN_MOTION_DOT":1.363e-5,"MEAN_MOTION_DDOT":0},{"OBJECT_NAME":"STARLINK-3703","OBJECT_ID":"2022-029P","EPOCH":"2025-09-29T21:48:28.213632","MEAN_MOTION":15.08850044,"ECCENTRICITY":0.0001192,"INCLINATION":53.2157,"RA_OF_ASC_NODE":91.0858,"ARG_OF_PERICENTER":80.154,"MEAN_ANOMALY":279.9587,"EPHEMERIS_TYPE":0,"CLASSIFICATION_TYPE":"U","NORAD_CAT_ID":52101,"ELEMENT_SET_NO":999,"REV_AT_EPOCH":19637,"BSTAR":4.6953e-5,"MEAN_MOTION_DOT":4.6e-6,"MEAN_MOTION_DDOT":0},{"OBJECT_NAME":"STARLINK-3709","OBJECT_ID":"2022-029Q","EPOCH":"2025-09-29T21:35:14.437824","MEAN_MOTION":15.08836294,"ECCENTRICITY":0.0001276,"INCLINATION":53.217,"RA_OF_ASC_NODE":80.9343,"ARG_OF_PERICENTER":92.5284,"MEAN_ANOMALY":267.5854,"EPHEMERIS_TYPE":0,"CLASSIFICATION_TYPE":"U","NORAD_CAT_ID":52102,"ELEMENT_SET_NO":999,"REV_AT_EPOCH":19651,"BSTAR":3.5888e-5,"MEAN_MOTION_DOT":2.83e-6,"MEAN_MOTION_DDOT":0},{"OBJECT_NAME":"STARLINK-3705","OBJECT_ID":"2022-029R","EPOCH":"2025-09-29T17:45:59.045472","MEAN_MOTION":15.08848434,"ECCENTRICITY":0.00013828,"INCLINATION":53.2173,"RA_OF_ASC_NODE":81.6491,"ARG_OF_PERICENTER":99.3927,"MEAN_ANOMALY":260.7221,"EPHEMERIS_TYPE":0,"CLASSIFICATION_TYPE":"U","NORAD_CAT_ID":52103,"ELEMENT_SET_NO":999,"REV_AT_EPOCH":19648,"BSTAR":5.9783482e-5,"MEAN_MOTION_DOT":6.64e-6,"MEAN_MOTION_DDOT":0},{"OBJECT_NAME":"STARLINK-3706","OBJECT_ID":"2022-029T","EPOCH":"2025-09-29T20:47:31.916832","MEAN_MOTION":15.08851102,"ECCENTRICITY":0.0001269,"INCLINATION":53.2169,"RA_OF_ASC_NODE":81.0842,"ARG_OF_PERICENTER":92.8683,"MEAN_ANOMALY":267.2455,"EPHEMERIS_TYPE":0,"CLASSIFICATION_TYPE":"U","NORAD_CAT_ID":52105,"ELEMENT_SET_NO":999,"REV_AT_EPOCH":19650,"BSTAR":0.0001298,"MEAN_MOTION_DOT":1.779e-5,"MEAN_MOTION_DDOT":0},{"OBJECT_NAME":"STARLINK-3670","OBJECT_ID":"2022-029U","EPOCH":"2025-09-29T19:41:15.308448","MEAN_MOTION":15.0884071,"ECCENTRICITY":0.00014199,"INCLINATION":53.2164,"RA_OF_ASC_NODE":91.2896,"ARG_OF_PERICENTER":94.1919,"MEAN_ANOMALY":265.9235,"EPHEMERIS_TYPE":0,"CLASSIFICATION_TYPE":"U","NORAD_CAT_ID":52106,"ELEMENT_SET_NO":999,"REV_AT_EPOCH":19636,"BSTAR":4.1349274e-5,"MEAN_MOTION_DOT":3.7e-6,"MEAN_MOTION_DDOT":0},{"OBJECT_NAME":"STARLINK-3658","OBJECT_ID":"2022-029V","EPOCH":"2025-09-29T19:05:28.896576","MEAN_MOTION":15.08838751,"ECCENTRICITY":0.00013088,"INCLINATION":53.2172,"RA_OF_ASC_NODE":81.405,"ARG_OF_PERICENTER":79.7273,"MEAN_ANOMALY":280.3867,"EPHEMERIS_TYPE":0,"CLASSIFICATION_TYPE":"U","NORAD_CAT_ID":52107,"ELEMENT_SET_NO":999,"REV_AT_EPOCH":19649,"BSTAR":7.2338823e-5,"MEAN_MOTION_DOT":8.64e-6,"MEAN_MOTION_DDOT":0},{"OBJECT_NAME":"STARLINK-3698","OBJECT_ID":"2022-029W","EPOCH":"2025-09-29T17:40:41.582496","MEAN_MOTION":15.08844815,"ECCENTRICITY":0.00014018,"INCLINATION":53.2176,"RA_OF_ASC_NODE":81.6681,"ARG_OF_PERICENTER":84.052,"MEAN_ANOMALY":276.0632,"EPHEMERIS_TYPE":0,"CLASSIFICATION_TYPE":"U","NORAD_CAT_ID":52108,"ELEMENT_SET_NO":999,"REV_AT_EPOCH":19648,"BSTAR":9.9819705e-5,"MEAN_MOTION_DOT":1.301e-5,"MEAN_MOTION_DDOT":0},{"OBJECT_NAME":"STARLINK-3687","OBJECT_ID":"2022-029Y","EPOCH":"2025-09-29T20:46:09.814368","MEAN_MOTION":15.08845455,"ECCENTRICITY":0.0001615,"INCLINATION":53.2169,"RA_OF_ASC_NODE":81.0888,"ARG_OF_PERICENTER":94.9284,"MEAN_ANOMALY":265.1893,"EPHEMERIS_TYPE":0,"CLASSIFICATION_TYPE":"U","NORAD_CAT_ID":52110,"ELEMENT_SET_NO":999,"REV_AT_EPOCH":19650,"BSTAR":0.00011957,"MEAN_MOTION_DOT":1.616e-5,"MEAN_MOTION_DDOT":0},{"OBJECT_NAME":"STARLINK-3708","OBJECT_ID":"2022-029Z","EPOCH":"2025-09-29T20:24:55.826496","MEAN_MOTION":15.08881824,"ECCENTRICITY":0.00011125,"INCLINATION":53.2169,"RA_OF_ASC_NODE":81.1537,"ARG_OF_PERICENTER":139.0936,"MEAN_ANOMALY":221.014,"EPHEMERIS_TYPE":0,"CLASSIFICATION_TYPE":"U","NORAD_CAT_ID":52111,"ELEMENT_SET_NO":999,"REV_AT_EPOCH":19650,"BSTAR":0.00032237606,"MEAN_MOTION_DOT":4.852e-5,"MEAN_MOTION_DDOT":0},{"OBJECT_NAME":"STARLINK-3734","OBJECT_ID":"2022-029AA","EPOCH":"2025-09-29T19:00:10.928160","MEAN_MOTION":15.08843234,"ECCENTRICITY":0.00012216,"INCLINATION":53.2167,"RA_OF_ASC_NODE":81.4202,"ARG_OF_PERICENTER":91.9315,"MEAN_ANOMALY":268.1817,"EPHEMERIS_TYPE":0,"CLASSIFICATION_TYPE":"U","NORAD_CAT_ID":52112,"ELEMENT_SET_NO":999,"REV_AT_EPOCH":19649,"BSTAR":0.00010292995,"MEAN_MOTION_DOT":1.351e-5,"MEAN_MOTION_DDOT":0},{"OBJECT_NAME":"STARLINK-3736","OBJECT_ID":"2022-029AB","EPOCH":"2025-09-30T04:11:18.134880","MEAN_MOTION":15.08838526,"ECCENTRICITY":0.00012014,"INCLINATION":53.2166,"RA_OF_ASC_NODE":79.7008,"ARG_OF_PERICENTER":90.1363,"MEAN_ANOMALY":269.9767,"EPHEMERIS_TYPE":0,"CLASSIFICATION_TYPE":"U","NORAD_CAT_ID":52113,"ELEMENT_SET_NO":999,"REV_AT_EPOCH":19655,"BSTAR":7.0344065e-5,"MEAN_MOTION_DOT":8.32e-6,"MEAN_MOTION_DDOT":0}]
